NORAD_CAT_ID,OBJECT_NAME,OBJECT_TYPE,EPOCH,MEAN_MOTION,ECCENTRICITY,INCLINATION,RA_OF_ASC_NODE,ARG_OF_PERICENTER,MEAN_ANOMALY,BSTAR,MEAN_MOTION_DOT,MEAN_MOTION_DDOT,TLE_LINE0,TLE_LINE1,TLE_LINE2,SEMIMAJOR_AXIS,PERIOD,APOGEE,PERIGEE,DECAYED
53249.0,STARLINK-4128,PAYLOAD,2023-07-27 00:07:31,15.08838376,0.0001053,53.2167,168.8521,110.7734,249.3371,5.5238e-05,5.91e-06,0.0,0 STARLINK-4128,1 53249U 22086H   23208.00522924  .00000591  00000-0  55238-4 0  9992,2 53249  53.2167 168.8521 0001053 110.7734 249.3371 15.08838376 56450,6917.885,95.438,540.479,539.022,0.0
53249.0,STARLINK-4128,PAYLOAD,2023-07-27 14:26:00,15.08834998,0.0001178,53.2168,166.1775,96.0485,264.0641,1.3219e-05,-7.7e-07,0.0,0 STARLINK-4128,1 53249U 22086H   23208.60139197 -.00000077  00000-0  13219-4 0  9997,2 53249  53.2168 166.1775 0001178  96.0485 264.0641 15.08834998 56742,6917.896,95.438,540.576,538.946,0.0
53249.0,STARLINK-4128,PAYLOAD,2023-07-27 23:58:19,15.0883227,0.0001217,53.2175,164.3924,96.1365,263.9766,-9.0179e-05,-1.722e-05,0.0,0 STARLINK-4128,1 53249U 22086H   23208.99883914 -.00001722  00000-0 -90179-4 0  9991,2 53249  53.2175 164.3924 0001217  96.1365 263.9766 15.08832270 56600,6917.904,95.438,540.611,538.927,0.0
53249.0,STARLINK-4128,PAYLOAD,2023-07-28 04:44:29,15.08831691,0.0001296,53.2174,163.5027,82.7099,277.4041,-3.1945e-05,-7.96e-06,0.0,0 STARLINK-4128,1 53249U 22086H   23209.19755815 -.00000796  00000-0 -31945-4 0  9998,2 53249  53.2174 163.5027 0001296  82.7099 277.4041 15.08831691 56833,6917.906,95.438,540.667,538.874,0.0
53249.0,STARLINK-4128,PAYLOAD,2023-07-28 14:16:47,15.08837972,0.000112,53.2171,161.7174,99.7979,260.314,-5.8533e-05,-1.219e-05,0.0,0 STARLINK-4128,1 53249U 22086H   23209.59499540 -.00001219  00000-0 -58533-4 0  9995,2 53249  53.2171 161.7174 0001120  99.7979 260.3140 15.08837972 56697,6917.887,95.438,540.526,538.977,0.0
53249.0,STARLINK-4128,PAYLOAD,2023-07-29 02:59:52,15.08844403,0.0001185,53.2166,159.3386,95.1097,265.003,-1.1514e-06,-3.06e-06,0.0,0 STARLINK-4128,1 53249U 22086H   23210.12491190 -.00000306  00000-0 -11514-5 0  9994,2 53249  53.2166 159.3386 0001185  95.1097 265.0030 15.08844403 56777,6917.867,95.437,540.552,538.912,0.0
53249.0,STARLINK-4128,PAYLOAD,2023-07-30 06:01:25,15.08846216,0.0001224,53.217,154.283,102.7011,257.4118,0.00018273,2.622e-05,0.0,0 STARLINK-4128,1 53249U 22086H   23211.25098847  .00002622  00000-0  18273-3 0  9999,2 53249  53.2170 154.2830 0001224 102.7011 257.4118 15.08846216 56940,6917.861,95.437,540.573,538.88,0.0
53249.0,STARLINK-4128,PAYLOAD,2023-07-31 01:06:03,15.0883924,0.0001327,53.2172,150.7154,96.1575,263.9568,6.4283e-05,7.35e-06,0.0,0 STARLINK-4128,1 53249U 22086H   23212.04587722  .00000735  00000-0  64283-4 0  9998,2 53249  53.2172 150.7154 0001327  96.1575 263.9568 15.08839240 57061,6917.883,95.438,540.666,538.83,0.0
53249.0,STARLINK-4128,PAYLOAD,2023-08-01 02:32:13,15.08845227,0.0001263,53.2174,145.9551,102.8905,257.2229,2.0257e-05,3.5e-07,0.0,0 STARLINK-4128,1 53249U 22086H   23213.10571364  .00000035  00000-0  20257-4 0  9997,2 53249  53.2174 145.9551 0001263 102.8905 257.2229 15.08845227 57221,6917.864,95.437,540.603,538.856,0.0
53249.0,STARLINK-4128,PAYLOAD,2023-08-02 00:47:38,15.0881297,0.0001532,53.2185,141.7906,112.937,247.1784,0.00032504,4.885e-05,0.0,0 STARLINK-4128,1 53249U 22086H   23214.03308493  .00004885  00000-0  32504-3 0  9995,2 53249  53.2185 141.7906 0001532 112.9370 247.1784 15.08812970 57366,6917.963,95.439,540.888,538.768,0.0
53249.0,STARLINK-4128,PAYLOAD,2023-08-02 05:33:47,15.08843145,0.000108,53.2178,140.9019,97.2449,262.8666,3.2129e-06,-2.37e-06,0.0,0 STARLINK-4128,1 53249U 22086H   23214.23179709 -.00000237  00000-0  32129-5 0  9996,2 53249  53.2178 140.9019 0001080  97.2449 262.8666 15.08843145 57398,6917.871,95.437,540.483,538.989,0.0
53249.0,STARLINK-4128,PAYLOAD,2023-08-03 03:49:10,15.08851026,0.000114,53.2183,136.7391,97.1536,262.9586,0.00010232,1.341e-05,0.0,0 STARLINK-4128,1 53249U 22086H   23215.15915225  .00001341  00000-0  10232-3 0  9994,2 53249  53.2183 136.7391 0001140  97.1536 262.9586 15.08851026 57538,6917.847,95.437,540.5,538.923,0.0
53249.0,STARLINK-4128,PAYLOAD,2023-08-04 02:04:35,15.08838456,0.000101,53.2177,132.5763,86.4779,273.6329,5.7028e-05,6.2e-06,0.0,0 STARLINK-4128,1 53249U 22086H   23216.08652427  .00000620  00000-0  57028-4 0  9993,2 53249  53.2177 132.5763 0001010  86.4779 273.6329 15.08838456 57675,6917.885,95.438,540.449,539.051,0.0
53249.0,STARLINK-4128,PAYLOAD,2023-08-05 03:30:45,15.08853739,0.0001067,53.2183,127.8163,95.9819,264.1295,0.00010138,1.327e-05,0.0,0 STARLINK-4128,1 53249U 22086H   23217.14635531  .00001327  00000-0  10138-3 0  9993,2 53249  53.2183 127.8163 0001067  95.9819 264.1295 15.08853739 57831,6917.838,95.437,540.442,538.965,0.0
53249.0,STARLINK-4128,PAYLOAD,2023-08-06 11:18:28,15.08830478,0.0001784,53.2171,121.8689,87.7258,272.3938,-0.00011992,-2.196e-05,0.0,0 STARLINK-4128,1 53249U 22086H   23218.47116686 -.00002196  00000-0 -11992-3 0  9991,2 53249  53.2171 121.8689 0001784  87.7258 272.3938 15.08830478 58030,6917.909,95.438,541.009,538.54,0.0
53249.0,STARLINK-4128,PAYLOAD,2023-08-07 00:01:34,15.08819263,0.000121,53.2168,119.4926,86.1242,273.9888,-0.00036361,-6.067e-05,0.0,0 STARLINK-4128,1 53249U 22086H   23219.00109319 -.00006067  00000-0 -36361-3 0  9994,2 53249  53.2168 119.4926 0001210  86.1242 273.9888 15.08819263 58112,6917.944,95.439,540.646,538.972,0.0
53249.0,STARLINK-4128,PAYLOAD,2023-08-08 01:27:44,15.08846618,0.0001026,53.2166,114.7343,73.4214,286.6891,0.00042412,6.47e-05,0.0,0 STARLINK-4128,1 53249U 22086H   23220.06093405  .00006470  00000-0  42412-3 0  9990,2 53249  53.2166 114.7343 0001026  73.4214 286.6891 15.08846618 58270,6917.86,95.437,540.435,539.015,0.0
53249.0,STARLINK-4128,PAYLOAD,2023-08-08 03:03:08,15.08852586,0.0001043,53.2162,114.4369,66.418,293.6921,0.0012051,0.0001895,0.0,0 STARLINK-4128,1 53249U 22086H   23220.12717771  .00018950  00000-0  12051-2 0  9997,2 53249  53.2162 114.4369 0001043  66.4180 293.6921 15.08852586 58288,6917.842,95.437,540.428,538.985,0.0
53249.0,STARLINK-4128,PAYLOAD,2023-08-09 09:15:26,15.08874731,0.0001018,53.2166,108.7868,65.8323,294.2775,0.00067323,0.00010453,0.0,0 STARLINK-4128,1 53249U 22086H   23221.38571853  .00010453  00000-0  67323-3 0  9998,2 53249  53.2166 108.7868 0001018  65.8323 294.2775 15.08874731 58477,6917.774,95.435,540.343,538.935,0.0
53249.0,STARLINK-4128,PAYLOAD,2023-08-10 02:44:40,15.08844134,9.19e-05,53.217,105.5154,87.0223,273.0874,0.00029192,4.362e-05,0.0,0 STARLINK-4128,1 53249U 22086H   23222.11436082  .00004362  00000-0  29192-3 0  9998,2 53249  53.2170 105.5154 0000919  87.0223 273.0874 15.08844134 58580,6917.868,95.437,540.369,539.097,0.0
53249.0,STARLINK-4128,PAYLOAD,2023-08-10 15:27:46,15.08837173,0.0001469,53.2147,103.1381,85.369,274.747,0.00050021,7.681e-05,0.0,0 STARLINK-4128,1 53249U 22086H   23222.64428582  .00007681  00000-0  50021-3 0  9994,2 53249  53.2147 103.1381 0001469  85.3690 274.7470 15.08837173 58664,6917.889,95.438,540.77,538.738,0.0
53249.0,STARLINK-4128,PAYLOAD,2023-08-11 08:57:01,15.08838105,0.0001466,53.2152,99.8671,80.1023,280.0135,0.00022487,3.292e-05,0.0,0 STARLINK-4128,1 53249U 22086H   23223.37292832  .00003292  00000-0  22487-3 0  9991,2 53249  53.2152  99.8671 0001466  80.1023 280.0135 15.08838105 58779,6917.886,95.438,540.765,538.737,0.0
53249.0,STARLINK-4128,PAYLOAD,2023-08-12 00:50:52,15.0882355,8.51e-05,53.2146,96.8941,93.5588,266.5502,-0.00015672,-2.78e-05,0.0,0 STARLINK-4128,1 53249U 22086H   23224.03533430 -.00002780  00000-0 -15672-3 0  9998,2 53249  53.2146  96.8941 0000851  93.5588 266.5502 15.08823550 58876,6917.931,95.439,540.384,539.207,0.0
53249.0,STARLINK-4128,PAYLOAD,2023-08-13 00:41:40,15.08836206,0.0001292,53.2157,92.4354,68.4232,291.6898,0.00020864,3.034e-05,0.0,0 STARLINK-4128,1 53249U 22086H   23225.02894007  .00003034  00000-0  20864-3 0  9998,2 53249  53.2157  92.4354 0001292  68.4232 291.6898 15.08836206 59022,6917.892,95.438,540.651,538.863,0.0
53249.0,STARLINK-4128,PAYLOAD,2023-08-14 00:32:27,15.08856791,0.0001034,53.2152,87.9729,74.8845,285.2261,0.00064929,0.00010065,0.0,0 STARLINK-4128,1 53249U 22086H   23226.02253585  .00010065  00000-0  64929-3 0  9991,2 53249  53.2152  87.9729 0001034  74.8845 285.2261 15.08856791 59177,6917.829,95.436,540.409,538.979,0.0
53249.0,STARLINK-4128,PAYLOAD,2023-08-15 00:23:13,15.08855274,0.000125,53.2176,83.5105,91.8959,268.2177,0.00035529,5.373e-05,0.0,0 STARLINK-4128,1 53249U 22086H   23227.01613016  .00005373  00000-0  35529-3 0  9990,2 53249  53.2176  83.5105 0001250  91.8959 268.2177 15.08855274 59327,6917.834,95.437,540.563,538.834,0.0
53249.0,STARLINK-4128,PAYLOAD,2023-08-15 16:17:05,15.08844591,0.0001151,53.2166,80.5377,94.1841,265.9283,2.6397e-06,-2.46e-06,0.0,0 STARLINK-4128,1 53249U 22086H   23227.67853094 -.00000246  00000-0  26397-5 0  9994,2 53249  53.2166  80.5377 0001151  94.1841 265.9283 15.08844591 59423,6917.866,95.437,540.528,538.935,0.0
53249.0,STARLINK-4128,PAYLOAD,2023-08-17 00:04:47,15.08844789,0.0001117,53.2153,74.5909,79.8453,280.2665,-1.9822e-05,-6.03e-06,0.0,0 STARLINK-4128,1 53249U 22086H   23229.00333035 -.00000603  00000-0 -19822-4 0  9993,2 53249  53.2153  74.5909 0001117  79.8453 280.2665 15.08844789 59629,6917.866,95.437,540.503,538.958,0.0
53249.0,STARLINK-4128,PAYLOAD,2023-08-18 22:10:59,15.08830337,0.0001456,53.2207,65.9668,76.3461,283.7693,6.7512e-05,7.86e-06,0.0,0 STARLINK-4128,1 53249U 22086H   23230.92429970  .00000786  00000-0  67512-4 0  9999,2 53249  53.2207  65.9668 0001456  76.3461 283.7693 15.08830337 59917,6917.91,95.438,540.782,538.768,0.0
53249.0,STARLINK-4128,PAYLOAD,2023-08-19 12:29:27,15.08838939,0.000111,53.2162,63.2907,91.3537,268.7582,5.8647e-05,6.46e-06,0.0,0 STARLINK-4128,1 53249U 22086H   23231.52045523  .00000646  00000-0  58647-4 0  9998,2 53249  53.2162  63.2907 0001110  91.3537 268.7582 15.08838939 60000,6917.884,95.438,540.517,538.981,0.0
